start=new Date('2021-09-07T00:00:00.000Z').valueOf();
sats=[{"LAUNCH_DATE":"2020-08-07","DECAY_DATE":null,"RA_OF_ASC_NODE":"281.8615","REV_AT_EPOCH":"6134","MEAN_MOTION":"15.06395986","EPOCH":"2021-09-06T13:37:51.748320","SEMIMAJOR_AXIS":"6925.361","PERIAPSIS":"546.528","CENTER_NAME":"EARTH","OBJECT_NAME":"STARLINK-1525","MEAN_MOTION_DOT":"-0.00000896","ECCENTRICITY":"0.00010080","GP_ID":"184194363","MEAN_ELEMENT_THEORY":"SGP4","INCLINATION":"53.0543","PERIOD":"95.592","CLASSIFICATION_TYPE":"U","REF_FRAME":"TEME","RCS_SIZE":"LARGE","MEAN_MOTION_DDOT":"0.0000000000000","TIME_SYSTEM":"UTC","OBJECT_TYPE":"PAYLOAD","FILE":"3109699","BSTAR":"-0.00004128800000","MEAN_ANOMALY":"268.9238","SITE":"AFETR","OBJECT_ID":"2020-055AR","COUNTRY_CODE":"US","APOAPSIS":"547.924","EPHEMERIS_TYPE":"0","TLE_LINE1":"1 46066U 20055AR  21249.56796005 -.00000896  00000-0 -41288-4 0  9992","NORAD_CAT_ID":"46066","TLE_LINE2":"2 46066  53.0543 281.8615 0001008  91.1867 268.9238 15.06395986 61340","ARG_OF_PERICENTER":"91.1867","ELEMENT_SET_NO":"999"},{"LAUNCH_DATE":"2020-08-07","SEMIMAJOR_AXIS":"6925.359","EPOCH":"2021-09-06T13:43:10.195392","MEAN_MOTION":"15.06396573","RA_OF_ASC_NODE":"281.8514","REV_AT_EPOCH":"6135","DECAY_DATE":null,"MEAN_MOTION_DOT":"-0.00001017","OBJECT_NAME":"STARLINK-1529","PERIAPSIS":"546.561","CENTER_NAME":"EARTH","INCLINATION":"53.0539","MEAN_ELEMENT_THEORY":"SGP4","GP_ID":"184194613","ECCENTRICITY":"0.00009580","OBJECT_TYPE":"PAYLOAD","TIME_SYSTEM":"UTC","MEAN_MOTION_DDOT":"0.0000000000000","RCS_SIZE":"LARGE","REF_FRAME":"TEME","PERIOD":"95.592","CLASSIFICATION_TYPE":"U","OBJECT_ID":"2020-055AS","SITE":"AFETR","MEAN_ANOMALY":"269.8723","BSTAR":"-0.00004939300000","FILE":"3109699","EPHEMERIS_TYPE":"0","TLE_LINE1":"1 46067U 20055AS  21249.57164578 -.00001017  00000-0 -49393-4 0  9999","APOAPSIS":"547.888","COUNTRY_CODE":"US","ELEMENT_SET_NO":"999","TLE_LINE2":"2 46067  53.0539 281.8514 0000958  90.2375 269.8723 15.06396573 61354","ARG_OF_PERICENTER":"90.2375","NORAD_CAT_ID":"46067"},{"NORAD_CAT_ID":"46068","ARG_OF_PERICENTER":"85.4026","TLE_LINE2":"2 46068  53.0523 280.9089 0000771  85.4026 274.7051 15.06396847 61383","ELEMENT_SET_NO":"999","APOAPSIS":"547.757","COUNTRY_CODE":"US","EPHEMERIS_TYPE":"0","TLE_LINE1":"1 46068U 20055AT  21249.78173923 -.00000811  00000-0 -35559-4 0  9997","FILE":"3109923","SITE":"AFETR","OBJECT_ID":"2020-055AT","BSTAR":"-0.00003555900000","MEAN_ANOMALY":"274.7051","REF_FRAME":"TEME","CLASSIFICATION_TYPE":"U","PERIOD":"95.592","OBJECT_TYPE":"PAYLOAD","TIME_SYSTEM":"UTC","MEAN_MOTION_DDOT":"0.0000000000000","RCS_SIZE":"LARGE","ECCENTRICITY":"0.00007710","GP_ID":"184223538","INCLINATION":"53.0523","MEAN_ELEMENT_THEORY":"SGP4","CENTER_NAME":"EARTH","PERIAPSIS":"546.689","OBJECT_NAME":"STARLINK-1532","MEAN_MOTION_DOT":"-0.00000811","DECAY_DATE":null,"EPOCH":"2021-09-06T18:45:42.269472","SEMIMAJOR_AXIS":"6925.358","RA_OF_ASC_NODE":"280.9089","REV_AT_EPOCH":"6138","MEAN_MOTION":"15.06396847","LAUNCH_DATE":"2020-08-07"},{"DECAY_DATE":null,"MEAN_MOTION":"15.06400772","REV_AT_EPOCH":"6139","RA_OF_ASC_NODE":"280.8404","SEMIMAJOR_AXIS":"6925.346","EPOCH":"2021-09-06T19:06:56.281536","LAUNCH_DATE":"2020-08-07","GP_ID":"184223790","ECCENTRICITY":"0.00010650","MEAN_ELEMENT_THEORY":"SGP4","INCLINATION":"53.0532","OBJECT_NAME":"STARLINK-1533","PERIAPSIS":"546.474","CENTER_NAME":"EARTH","MEAN_MOTION_DOT":"-0.00000749","FILE":"3109923","MEAN_ANOMALY":"274.2184","BSTAR":"-0.00003142200000","OBJECT_ID":"2020-055AU","SITE":"AFETR","PERIOD":"95.592","CLASSIFICATION_TYPE":"U","REF_FRAME":"TEME","RCS_SIZE":"LARGE","MEAN_MOTION_DDOT":"0.0000000000000","TIME_SYSTEM":"UTC","OBJECT_TYPE":"PAYLOAD","NORAD_CAT_ID":"46069","ELEMENT_SET_NO":"999","TLE_LINE2":"2 46069  53.0532 280.8404 0001065  85.8927 274.2184 15.06400772 61391","ARG_OF_PERICENTER":"85.8927","COUNTRY_CODE":"US","APOAPSIS":"547.949","TLE_LINE1":"1 46069U 20055AU  21249.79648474 -.00000749  00000-0 -31422-4 0  9992","EPHEMERIS_TYPE":"0"},{"ELEMENT_SET_NO":"999","TLE_LINE2":"2 46070  53.0531 280.7742 0000840  77.4091 282.6992 15.06393171 61399","ARG_OF_PERICENTER":"77.4091","NORAD_CAT_ID":"46070","TLE_LINE1":"1 46070U 20055AV  21249.81123396  .00000894  00000-0  78926-4 0  9997","EPHEMERIS_TYPE":"0","COUNTRY_CODE":"US","APOAPSIS":"547.816","MEAN_ANOMALY":"282.6992","BSTAR":"0.00007892600000","OBJECT_ID":"2020-055AV","SITE":"AFETR","FILE":"3109923","RCS_SIZE":"LARGE","MEAN_MOTION_DDOT":"0.0000000000000","OBJECT_TYPE":"PAYLOAD","TIME_SYSTEM":"UTC","CLASSIFICATION_TYPE":"U","PERIOD":"95.593","REF_FRAME":"TEME","MEAN_ELEMENT_THEORY":"SGP4","INCLINATION":"53.0531","GP_ID":"184224540","ECCENTRICITY":"0.00008400","MEAN_MOTION_DOT":"0.00000894","OBJECT_NAME":"STARLINK-1536","PERIAPSIS":"546.653","CENTER_NAME":"EARTH","MEAN_MOTION":"15.06393171","REV_AT_EPOCH":"6139","RA_OF_ASC_NODE":"280.7742","SEMIMAJOR_AXIS":"6925.369","EPOCH":"2021-09-06T19:28:10.614144","DECAY_DATE":null,"LAUNCH_DATE":"2020-08-07"},{"MEAN_MOTION_DDOT":"0.0000000000000","RCS_SIZE":"LARGE","OBJECT_TYPE":"PAYLOAD","TIME_SYSTEM":"UTC","PERIOD":"95.591","CLASSIFICATION_TYPE":"U","REF_FRAME":"TEME","BSTAR":"-0.00019963000000","MEAN_ANOMALY":"259.9986","SITE":"AFETR","OBJECT_ID":"2020-055AW","FILE":"3109923","EPHEMERIS_TYPE":"0","TLE_LINE1":"1 46071U 20055AW  21249.82965134 -.00003254  00000-0 -19963-3 0  9993","COUNTRY_CODE":"US","APOAPSIS":"547.651","TLE_LINE2":"2 46071  53.0549 280.6921 0000681 100.1080 259.9986 15.06411034 61391","ARG_OF_PERICENTER":"100.1080","ELEMENT_SET_NO":"999","NORAD_CAT_ID":"46071","LAUNCH_DATE":"2020-08-07","REV_AT_EPOCH":"6139","RA_OF_ASC_NODE":"280.6921","MEAN_MOTION":"15.06411034","EPOCH":"2021-09-06T19:54:41.875776","SEMIMAJOR_AXIS":"6925.315","DECAY_DATE":null,"MEAN_MOTION_DOT":"-0.00003254","PERIAPSIS":"546.708","CENTER_NAME":"EARTH","OBJECT_NAME":"STARLINK-1538","MEAN_ELEMENT_THEORY":"SGP4","INCLINATION":"53.0549","ECCENTRICITY":"0.00006810","GP_ID":"184223288"},{"DECAY_DATE":null,"MEAN_MOTION":"15.06401802","REV_AT_EPOCH":"6137","RA_OF_ASC_NODE":"280.8638","SEMIMAJOR_AXIS":"6925.343","EPOCH":"2021-09-06T18:54:57.268512","LAUNCH_DATE":"2020-08-07","GP_ID":"184223039","ECCENTRICITY":"0.00006970","MEAN_ELEMENT_THEORY":"SGP4","INCLINATION":"53.0531","OBJECT_NAME":"STARLINK-1539","CENTER_NAME":"EARTH","PERIAPSIS":"546.725","MEAN_MOTION_DOT":"0.00001552","FILE":"3109923","MEAN_ANOMALY":"266.1981","BSTAR":"0.00012305000000","OBJECT_ID":"2020-055AX","SITE":"AFETR","CLASSIFICATION_TYPE":"U","PERIOD":"95.592","REF_FRAME":"TEME","RCS_SIZE":"LARGE","MEAN_MOTION_DDOT":"0.0000000000000","OBJECT_TYPE":"PAYLOAD","TIME_SYSTEM":"UTC","NORAD_CAT_ID":"46072","ELEMENT_SET_NO":"999","ARG_OF_PERICENTER":"93.9088","TLE_LINE2":"2 46072  53.0531 280.8638 0000697  93.9088 266.1981 15.06401802 61379","COUNTRY_CODE":"US","APOAPSIS":"547.691","TLE_LINE1":"1 46072U 20055AX  21249.78816283  .00001552  00000-0  12305-3 0  9999","EPHEMERIS_TYPE":"0"},{"INCLINATION":"53.0552","MEAN_ELEMENT_THEORY":"SGP4","GP_ID":"184224290","ECCENTRICITY":"0.00008600","MEAN_MOTION_DOT":"0.00001278","OBJECT_NAME":"STARLINK-1542","PERIAPSIS":"546.585","CENTER_NAME":"EARTH","SEMIMAJOR_AXIS":"6925.316","EPOCH":"2021-09-06T19:17:33.554976","MEAN_MOTION":"15.06410751","REV_AT_EPOCH":"6138","RA_OF_ASC_NODE":"280.8049","DECAY_DATE":null,"LAUNCH_DATE":"2020-08-07","ELEMENT_SET_NO":"999","TLE_LINE2":"2 46073  53.0552 280.8049 0000860 102.3787 257.7298 15.06410751 61383","ARG_OF_PERICENTER":"102.3787","NORAD_CAT_ID":"46073","TLE_LINE1":"1 46073U 20055AY  21249.80386059  .00001278  00000-0  10465-3 0  9996","EPHEMERIS_TYPE":"0","APOAPSIS":"547.776","COUNTRY_CODE":"US","OBJECT_ID":"2020-055AY","SITE":"AFETR","MEAN_ANOMALY":"257.7298","BSTAR":"0.00010465000000","FILE":"3109923","TIME_SYSTEM":"UTC","OBJECT_TYPE":"PAYLOAD","RCS_SIZE":"LARGE","MEAN_MOTION_DDOT":"0.0000000000000","REF_FRAME":"TEME","PERIOD":"95.591","CLASSIFICATION_TYPE":"U"},{"MEAN_ANOMALY":"269.2836","BSTAR":"-0.00003906500000","OBJECT_ID":"2020-055AZ","SITE":"AFETR","FILE":"3109923","MEAN_MOTION_DDOT":"0.0000000000000","RCS_SIZE":"LARGE","TIME_SYSTEM":"UTC","OBJECT_TYPE":"PAYLOAD","PERIOD":"95.592","CLASSIFICATION_TYPE":"U","REF_FRAME":"TEME","ELEMENT_SET_NO":"999","ARG_OF_PERICENTER":"90.8231","TLE_LINE2":"2 46074  53.0534 280.8731 0000683  90.8231 269.2836 15.06395690 61379","NORAD_CAT_ID":"46074","EPHEMERIS_TYPE":"0","TLE_LINE1":"1 46074U 20055AZ  21249.78911717 -.00000863  00000-0 -39065-4 0  9998","COUNTRY_CODE":"US","APOAPSIS":"547.700","MEAN_MOTION":"15.06395690","REV_AT_EPOCH":"6137","RA_OF_ASC_NODE":"280.8731","SEMIMAJOR_AXIS":"6925.362","EPOCH":"2021-09-06T18:56:19.723488","DECAY_DATE":null,"LAUNCH_DATE":"2020-08-07","MEAN_ELEMENT_THEORY":"SGP4","INCLINATION":"53.0534","GP_ID":"184224041","ECCENTRICITY":"0.00006830","MEAN_MOTION_DOT":"-0.00000863","OBJECT_NAME":"STARLINK-1549","CENTER_NAME":"EARTH","PERIAPSIS":"546.754"},{"ECCENTRICITY":"0.00007490","GP_ID":"184222789","INCLINATION":"53.0550","MEAN_ELEMENT_THEORY":"SGP4","CENTER_NAME":"EARTH","PERIAPSIS":"546.661","OBJECT_NAME":"STARLINK-1551","MEAN_MOTION_DOT":"0.00001471","DECAY_DATE":null,"EPOCH":"2021-09-06T19:33:28.907424","SEMIMAJOR_AXIS":"6925.315","RA_OF_ASC_NODE":"280.7588","REV_AT_EPOCH":"6138","MEAN_MOTION":"15.06411047","LAUNCH_DATE":"2020-08-07","NORAD_CAT_ID":"46075","TLE_LINE2":"2 46075  53.0550 280.7588 0000749  87.5152 272.5923 15.06411047 61385","ARG_OF_PERICENTER":"87.5152","ELEMENT_SET_NO":"999","APOAPSIS":"547.698","COUNTRY_CODE":"US","TLE_LINE1":"1 46075U 20055BA  21249.81491791  .00001471  00000-0  11756-3 0  9998","EPHEMERIS_TYPE":"0","FILE":"3109923","SITE":"AFETR","OBJECT_ID":"2020-055BA","BSTAR":"0.00011756000000","MEAN_ANOMALY":"272.5923","REF_FRAME":"TEME","PERIOD":"95.591","CLASSIFICATION_TYPE":"U","OBJECT_TYPE":"PAYLOAD","TIME_SYSTEM":"UTC","RCS_SIZE":"LARGE","MEAN_MOTION_DDOT":"0.0000000000000"}];
